SCD 1                   
1 22490U 93009B   26188.05240078  .00000388  00000+0  55359-4 0  9998
2 22490  24.9696  84.9180 0041785 348.5572 139.3367 14.46126599763997
TECHSAT 1B (GO-32)      
1 25397U 98043D   26187.94313304  .00000041  00000+0  37960-4 0  9994
2 25397  99.0077 181.2008 0001943 128.2186 231.9167 14.24432203454147
SCD 2                   
1 25504U 98060A   26188.46338725  .00000337  00000+0  43214-4 0  9992
2 25504  24.9961 307.1193 0016688 338.2344  85.0178 14.45533192463266
DLR-TUBSAT              
1 25757U 99029B   26188.40935075  .00000067  00000+0  28346-4 0  9992
2 25757  98.6705 184.5795 0013033 290.4952  69.4843 14.52432051436186
TERRA                   
1 25994U 99068A   26188.50724568  .00000320  00000+0  74049-4 0  9995
2 25994  97.9444 237.2467 0003046 138.1285 354.4816 14.61119538412579
MAROC-TUBSAT            
1 27004U 01056D   26188.44070336 -.00000024  00000+0  26016-4 0  9992
2 27004  99.8094   5.6829 0020635  91.1872 300.5175 13.70263230228963
AQUA                    
1 27424U 02022A   26188.51835839  .00000667  00000+0  14222-3 0  9994
2 27424  98.4289 158.2090 0000727  97.2739 340.1375 14.62189404286243
SHIYAN-1 (SY-1)         
1 28220U 04012A   26188.14405066  .00010804  00000+0  32771-3 0  9997
2 28220  97.8681 267.5156 0004151 313.3427  46.7468 15.34307947214152
AURA                    
1 28376U 04026A   26188.45883602  .00000655  00000+0  14229-3 0  9995
2 28376  98.3426 145.0813 0001219  89.7749 270.3591 14.61360074169172
IRS-P5 (CARTOSAT-1)     
1 28649U 05017A   26187.94208735  .00001359  00000+0  14247-3 0  9992
2 28649  97.5304 210.1102 0001829  57.7463 302.3933 14.91102434146764
SINAH 1                 
1 28893U 05043D   26188.55585605  .00000287  00000+0  63868-4 0  9997
2 28893  98.2885 323.0005 0013856 207.8845 152.1616 14.64172066103500
RESURS-DK 1             
1 29228U 06021A   26188.26242769  .00001509  00000+0  90655-4 0  9998
2 29228  69.9330 287.5844 0006735 279.9257  80.1149 15.13300743105618
ARIRANG-2 (KOMPSAT-2)   
1 29268U 06031A   26188.51881302  .00000304  00000+0  65535-4 0  9994
2 29268  97.8316  11.9818 0014906  14.7239  69.6574 14.64673143 64452
LAPAN-TUBSAT            
1 29709U 07001A   26188.52296715  .00000236  00000+0  33557-4 0  9994
2 29709  98.1353 188.2064 0013381 115.9780 244.2815 14.85971682 54178
HAIYANG-1B              
1 31113U 07010A   26188.42163325  .00000079  00000+0  45706-4 0  9999
2 31113  98.3507 169.4831 0014331 137.3096 222.9203 14.31031938  3530
COSMO-SKYMED 1          
1 31598U 07023A   26188.51965931  .00001464  00000+0  13179-3 0  9990
2 31598  97.8849  20.5476 0000991  89.4650 270.6685 14.97197166 32839
TERRASAR-X              
1 31698U 07026A   26187.49113296  .00000461  00000+0  25162-4 0  9991
2 31698  97.4461 194.9230 0001884  89.5305 270.6146 15.19153904 56150
WORLDVIEW-1 (WV-1)      
1 32060U 07041A   26188.18182763  .00004244  00000+0  17557-3 0  9995
2 32060  97.3892 307.6432 0000952 260.9094  99.2036 15.24497852 45928
YAOGAN-3                
1 32289U 07055A   26188.53139701  .00001629  00000+0  17100-3 0  9994
2 32289  97.8147 218.2083 0001670  75.9893 284.1511 14.90864150  8908
COSMO-SKYMED 2          
1 32376U 07059A   26188.14413995  .00000332  00000+0  48243-4 0  9995
2 32376  97.8891  11.4530 0001348  91.9165 268.2202 14.82162098  4968
RADARSAT-2              
1 32382U 07061A   26188.18942378  .00000189  00000+0  90258-4 0  9994
2 32382  98.5782 194.8363 0001322  84.4472 275.6861 14.29982485968819
CARTOSAT-2A             
1 32783U 08021A   26188.47469257  .00000556  00000+0  81413-4 0  9999
2 32783  97.7618 236.4903 0012992  50.2263 310.0091 14.79270222981807
HUANJING 1A (HJ-1A)     
1 33320U 08041A   26188.52912240  .00001784  00000+0  21952-3 0  9995
2 33320  97.6697 173.5821 0020682  72.9236 287.4243 14.84040091961424
HUANJING 1B (HJ-1B)     
1 33321U 08041B   26188.50751833  .00000624  00000+0  81519-4 0  9991
2 33321  97.6532 176.6712 0037654 115.3874 245.1247 14.83354668961425
GEOEYE 1                
1 33331U 08042A   26188.50982230  .00000358  00000+0  76336-4 0  9995
2 33331  98.1330 262.1955 0004519  11.6636 348.4671 14.64645079953120
THEOS                   
1 33396U 08049A   26188.47147997  .00000171  00000+0  10027-3 0  9999
2 33396  98.5556 245.0959 0001137  85.1774 274.9533 14.20136987920849
COSMO-SKYMED 3          
1 33412U 08054A   26188.52734353  .00002276  00000+0  15571-3 0  9995
2 33412  97.8269  47.4341 0015075 191.0719 169.0179 15.07086577960009
YAOGAN-4                
1 33446U 08061A   26188.27077124  .00000924  00000+0  11944-3 0  9996
2 33446  97.9306 121.6333 0014527  11.5254 348.6289 14.83241081948645
GOSAT (IBUKI)           
1 33492U 09002A   26187.91118449  .00000239  00000+0  50550-4 0  9995
2 33492  98.0909 298.7472 0001202  83.4205 276.7136 14.67538625934357
DEIMOS-1                
1 35681U 09041A   26188.53433164  .00000714  00000+0  11257-3 0  9991
2 35681  97.7431 344.8823 0002580 102.7040 257.4459 14.75259980909887
DUBAISAT-1              
1 35682U 09041B   26188.30275325  .00000771  00000+0  12168-3 0  9995
2 35682  98.0075 321.3429 0010544  14.0912 346.0589 14.75158091908069
